start=new Date('2023-03-27T00:00:00.000Z').valueOf();
sats=[{"ECCENTRICITY":"0.00008850","RA_OF_ASC_NODE":"271.9989","BSTAR":"0.00255030000000","APOAPSIS":"540.254","REF_FRAME":"TEME","SEMIMAJOR_AXIS":"6917.777","MEAN_MOTION_DDOT":"0.0000000000000","COUNTRY_CODE":"US","LAUNCH_DATE":"2022-04-21","TLE_LINE2":"2 52268  53.2138 271.9989 0000885 149.5464 210.5580 15.08873800 51508","ELEMENT_SET_NO":"999","MEAN_MOTION":"15.08873800","FILE":"3871964","PERIAPSIS":"539.030","INCLINATION":"53.2138","NORAD_CAT_ID":"52268","TLE_LINE1":"1 52268U 22041H   23085.90133376  .00040572  00000-0  25503-2 0  9997","OBJECT_NAME":"STARLINK-3746","OBJECT_TYPE":"PAYLOAD","ARG_OF_PERICENTER":"149.5464","CLASSIFICATION_TYPE":"U","TIME_SYSTEM":"UTC","EPHEMERIS_TYPE":"0","CENTER_NAME":"EARTH","MEAN_ELEMENT_THEORY":"SGP4","PERIOD":"95.435","OBJECT_ID":"2022-041H","MEAN_MOTION_DOT":"0.00040572","RCS_SIZE":"LARGE","EPOCH":"2023-03-26T21:37:55.236864","DECAY_DATE":null,"SITE":"AFETR","MEAN_ANOMALY":"210.5580","REV_AT_EPOCH":"5150","GP_ID":"228919280"},{"TLE_LINE2":"2 52269  53.2150 272.2521 0001155 128.4303 231.6793 15.08844743 51490","MEAN_MOTION":"15.08844743","ELEMENT_SET_NO":"999","LAUNCH_DATE":"2022-04-21","COUNTRY_CODE":"US","MEAN_MOTION_DDOT":"0.0000000000000","REF_FRAME":"TEME","SEMIMAJOR_AXIS":"6917.866","APOAPSIS":"540.530","BSTAR":"0.00194220000000","RA_OF_ASC_NODE":"272.2521","ECCENTRICITY":"0.00011550","TIME_SYSTEM":"UTC","CLASSIFICATION_TYPE":"U","ARG_OF_PERICENTER":"128.4303","OBJECT_TYPE":"PAYLOAD","TLE_LINE1":"1 52269U 22041J   23085.84150519  .00030761  00000-0  19422-2 0  9991","OBJECT_NAME":"STARLINK-3791","NORAD_CAT_ID":"52269","INCLINATION":"53.2150","FILE":"3871964","PERIAPSIS":"538.932","MEAN_MOTION_DOT":"0.00030761","OBJECT_ID":"2022-041J","PERIOD":"95.437","MEAN_ELEMENT_THEORY":"SGP4","CENTER_NAME":"EARTH","EPHEMERIS_TYPE":"0","GP_ID":"228920031","REV_AT_EPOCH":"5149","MEAN_ANOMALY":"231.6793","SITE":"AFETR","DECAY_DATE":null,"EPOCH":"2023-03-26T20:11:46.048416","RCS_SIZE":"LARGE"},{"REF_FRAME":"TEME","SEMIMAJOR_AXIS":"6917.793","APOAPSIS":"540.403","BSTAR":"0.00230590000000","RA_OF_ASC_NODE":"272.3191","ECCENTRICITY":"0.00010770","ELEMENT_SET_NO":"999","TLE_LINE2":"2 52270  53.2148 272.3191 0001077 132.4205 227.6879 15.08868449 51491","MEAN_MOTION":"15.08868449","LAUNCH_DATE":"2022-04-21","COUNTRY_CODE":"US","MEAN_MOTION_DDOT":"0.0000000000000","NORAD_CAT_ID":"52270","INCLINATION":"53.2148","FILE":"3871964","PERIAPSIS":"538.913","TIME_SYSTEM":"UTC","CLASSIFICATION_TYPE":"U","OBJECT_TYPE":"PAYLOAD","ARG_OF_PERICENTER":"132.4205","OBJECT_NAME":"STARLINK-3804","TLE_LINE1":"1 52270U 22041K   23085.83414072  .00036630  00000-0  23059-2 0  9991","PERIOD":"95.436","MEAN_ELEMENT_THEORY":"SGP4","CENTER_NAME":"EARTH","EPHEMERIS_TYPE":"0","MEAN_MOTION_DOT":"0.00036630","OBJECT_ID":"2022-041K","SITE":"AFETR","MEAN_ANOMALY":"227.6879","DECAY_DATE":null,"EPOCH":"2023-03-26T20:01:09.758208","RCS_SIZE":"LARGE","GP_ID":"228918280","REV_AT_EPOCH":"5149"},{"DECAY_DATE":null,"EPOCH":"2023-03-26T21:41:51.251424","MEAN_ANOMALY":"305.2268","SITE":"AFETR","RCS_SIZE":"LARGE","GP_ID":"228918530","REV_AT_EPOCH":"5150","MEAN_ELEMENT_THEORY":"SGP4","PERIOD":"95.438","CENTER_NAME":"EARTH","EPHEMERIS_TYPE":"0","MEAN_MOTION_DOT":"0.00025206","OBJECT_ID":"2022-041L","NORAD_CAT_ID":"52271","FILE":"3871964","PERIAPSIS":"538.750","INCLINATION":"53.2151","TIME_SYSTEM":"UTC","CLASSIFICATION_TYPE":"U","TLE_LINE1":"1 52271U 22041L   23085.90406541  .00025206  00000-0  15963-2 0  9994","OBJECT_NAME":"STARLINK-3788","ARG_OF_PERICENTER":"54.8861","OBJECT_TYPE":"PAYLOAD","APOAPSIS":"540.761","SEMIMAJOR_AXIS":"6917.891","REF_FRAME":"TEME","RA_OF_ASC_NODE":"271.9709","ECCENTRICITY":"0.00014530","BSTAR":"0.00159630000000","LAUNCH_DATE":"2022-04-21","COUNTRY_CODE":"US","MEAN_MOTION_DDOT":"0.0000000000000","MEAN_MOTION":"15.08836656","TLE_LINE2":"2 52271  53.2151 271.9709 0001453  54.8861 305.2268 15.08836656 51501","ELEMENT_SET_NO":"999"},{"TLE_LINE2":"2 52272  53.2153 272.3097 0000804  58.3585 301.7486 15.08841290 51491","MEAN_MOTION":"15.08841290","ELEMENT_SET_NO":"999","LAUNCH_DATE":"2022-04-21","MEAN_MOTION_DDOT":"0.0000000000000","COUNTRY_CODE":"US","BSTAR":"0.00056413000000","RA_OF_ASC_NODE":"272.3097","ECCENTRICITY":"0.00008040","REF_FRAME":"TEME","SEMIMAJOR_AXIS":"6917.876","APOAPSIS":"540.298","OBJECT_TYPE":"PAYLOAD","ARG_OF_PERICENTER":"58.3585","OBJECT_NAME":"STARLINK-3781","TLE_LINE1":"1 52272U 22041M   23085.82677505  .00008702  00000-0  56413-3 0  9994","TIME_SYSTEM":"UTC","CLASSIFICATION_TYPE":"U","INCLINATION":"53.2153","PERIAPSIS":"539.185","FILE":"3871964","NORAD_CAT_ID":"52272","OBJECT_ID":"2022-041M","MEAN_MOTION_DOT":"0.00008702","CENTER_NAME":"EARTH","EPHEMERIS_TYPE":"0","PERIOD":"95.437","MEAN_ELEMENT_THEORY":"SGP4","REV_AT_EPOCH":"5149","GP_ID":"228919781","RCS_SIZE":"LARGE","SITE":"AFETR","MEAN_ANOMALY":"301.7486","DECAY_DATE":null,"EPOCH":"2023-03-26T19:50:33.364320"},{"OBJECT_NAME":"STARLINK-3782","TLE_LINE1":"1 52273U 22041N   23085.79820670  .00001882  00000-0  13628-3 0  9997","OBJECT_TYPE":"PAYLOAD","ARG_OF_PERICENTER":"83.5270","TIME_SYSTEM":"UTC","CLASSIFICATION_TYPE":"U","FILE":"3871964","PERIAPSIS":"538.993","INCLINATION":"53.2162","NORAD_CAT_ID":"52273","LAUNCH_DATE":"2022-04-21","COUNTRY_CODE":"US","MEAN_MOTION_DDOT":"0.0000000000000","ELEMENT_SET_NO":"999","TLE_LINE2":"2 52273  53.2162 262.0951 0001059  83.5270 276.5843 15.08846570 51639","MEAN_MOTION":"15.08846570","RA_OF_ASC_NODE":"262.0951","ECCENTRICITY":"0.00010590","BSTAR":"0.00013628000000","APOAPSIS":"540.458","SEMIMAJOR_AXIS":"6917.860","REF_FRAME":"TEME","REV_AT_EPOCH":"5163","GP_ID":"228919531","RCS_SIZE":"LARGE","DECAY_DATE":null,"EPOCH":"2023-03-26T19:09:25.058880","MEAN_ANOMALY":"276.5843","SITE":"AFETR","OBJECT_ID":"2022-041N","MEAN_MOTION_DOT":"0.00001882","CENTER_NAME":"EARTH","EPHEMERIS_TYPE":"0","MEAN_ELEMENT_THEORY":"SGP4","PERIOD":"95.437"},{"EPHEMERIS_TYPE":"0","CENTER_NAME":"EARTH","MEAN_ELEMENT_THEORY":"SGP4","PERIOD":"95.438","OBJECT_ID":"2022-041P","MEAN_MOTION_DOT":"0.00026655","RCS_SIZE":"LARGE","EPOCH":"2023-03-26T19:45:16.280640","DECAY_DATE":null,"SITE":"AFETR","MEAN_ANOMALY":"243.0984","REV_AT_EPOCH":"5149","GP_ID":"228918781","ECCENTRICITY":"0.00012550","RA_OF_ASC_NODE":"272.3434","BSTAR":"0.00168670000000","APOAPSIS":"540.627","SEMIMAJOR_AXIS":"6917.894","REF_FRAME":"TEME","COUNTRY_CODE":"US","MEAN_MOTION_DDOT":"0.0000000000000","LAUNCH_DATE":"2022-04-21","TLE_LINE2":"2 52274  53.2141 272.3434 0001255 117.0137 243.0984 15.08835640 51495","ELEMENT_SET_NO":"999","MEAN_MOTION":"15.08835640","FILE":"3871964","PERIAPSIS":"538.891","INCLINATION":"53.2141","NORAD_CAT_ID":"52274","OBJECT_NAME":"STARLINK-3790","TLE_LINE1":"1 52274U 22041P   23085.82310510  .00026655  00000-0  16867-2 0  9991","OBJECT_TYPE":"PAYLOAD","ARG_OF_PERICENTER":"117.0137","CLASSIFICATION_TYPE":"U","TIME_SYSTEM":"UTC"},{"RA_OF_ASC_NODE":"272.3098","ECCENTRICITY":"0.00011290","BSTAR":"0.00176640000000","APOAPSIS":"540.475","SEMIMAJOR_AXIS":"6917.829","REF_FRAME":"TEME","LAUNCH_DATE":"2022-04-21","COUNTRY_CODE":"US","MEAN_MOTION_DDOT":"0.0000000000000","TLE_LINE2":"2 52275  53.2134 272.3098 0001129 113.6974 246.4137 15.08856819 51493","ELEMENT_SET_NO":"999","MEAN_MOTION":"15.08856819","PERIAPSIS":"538.913","FILE":"3871964","INCLINATION":"53.2134","NORAD_CAT_ID":"52275","TLE_LINE1":"1 52275U 22041Q   23085.83045088  .00027949  00000-0  17664-2 0  9991","OBJECT_NAME":"STARLINK-3784","ARG_OF_PERICENTER":"113.6974","OBJECT_TYPE":"PAYLOAD","CLASSIFICATION_TYPE":"U","TIME_SYSTEM":"UTC","CENTER_NAME":"EARTH","EPHEMERIS_TYPE":"0","MEAN_ELEMENT_THEORY":"SGP4","PERIOD":"95.436","OBJECT_ID":"2022-041Q","MEAN_MOTION_DOT":"0.00027949","RCS_SIZE":"LARGE","DECAY_DATE":null,"EPOCH":"2023-03-26T19:55:50.956032","SITE":"AFETR","MEAN_ANOMALY":"246.4137","REV_AT_EPOCH":"5149","GP_ID":"228919030"},{"INCLINATION":"53.2154","FILE":"3871964","PERIAPSIS":"539.073","NORAD_CAT_ID":"52276","ARG_OF_PERICENTER":"50.3193","OBJECT_TYPE":"PAYLOAD","OBJECT_NAME":"STARLINK-3778","TLE_LINE1":"1 52276U 22041R   23085.81941977  .00002187  00000-0  15546-3 0  9997","TIME_SYSTEM":"UTC","CLASSIFICATION_TYPE":"U","BSTAR":"0.00015546000000","ECCENTRICITY":"0.00010170","RA_OF_ASC_NODE":"272.3548","REF_FRAME":"TEME","SEMIMAJOR_AXIS":"6917.911","APOAPSIS":"540.480","ELEMENT_SET_NO":"999","TLE_LINE2":"2 52276  53.2154 272.3548 0001017  50.3193 309.7889 15.08829830 51492","MEAN_MOTION":"15.08829830","COUNTRY_CODE":"US","MEAN_MOTION_DDOT":"0.0000000000000","LAUNCH_DATE":"2022-04-21","RCS_SIZE":"LARGE","SITE":"AFETR","MEAN_ANOMALY":"309.7889","EPOCH":"2023-03-26T19:39:57.868128","DECAY_DATE":null,"REV_AT_EPOCH":"5149","GP_ID":"228919281","EPHEMERIS_TYPE":"0","CENTER_NAME":"EARTH","PERIOD":"95.438","MEAN_ELEMENT_THEORY":"SGP4","OBJECT_ID":"2022-041R","MEAN_MOTION_DOT":"0.00002187"},{"CENTER_NAME":"EARTH","EPHEMERIS_TYPE":"0","PERIOD":"95.118","MEAN_ELEMENT_THEORY":"SGP4","OBJECT_ID":"2022-041S","MEAN_MOTION_DOT":"0.00041721","RCS_SIZE":"LARGE","MEAN_ANOMALY":"141.0691","SITE":"AFETR","DECAY_DATE":null,"EPOCH":"2023-03-26T22:31:29.100000","REV_AT_EPOCH":"5152","GP_ID":"228920032","BSTAR":"0.00228020000000","RA_OF_ASC_NODE":"270.9167","ECCENTRICITY":"0.00036060","REF_FRAME":"TEME","SEMIMAJOR_AXIS":"6902.417","APOAPSIS":"526.771","ELEMENT_SET_NO":"999","TLE_LINE2":"2 52277  53.2137 270.9167 0003606 219.0043 141.0691 15.13913312 51526","MEAN_MOTION":"15.13913312","LAUNCH_DATE":"2022-04-21","MEAN_MOTION_DDOT":"0.0000000000000","COUNTRY_CODE":"US","INCLINATION":"53.2137","FILE":"3871964","PERIAPSIS":"521.793","NORAD_CAT_ID":"52277","ARG_OF_PERICENTER":"219.0043","OBJECT_TYPE":"PAYLOAD","TLE_LINE1":"1 52277U 22041S   23085.93853125  .00041721  00000-0  22802-2 0  9997","OBJECT_NAME":"STARLINK-3787","CLASSIFICATION_TYPE":"U","TIME_SYSTEM":"UTC"}];
